{
  "type": "FeatureCollection",
  "features": [
    {
      "type": "Feature",
      "properties": {
        "norad_id": 43262,
        "name": "GAOFEN-1 04",
        "group": "resource",
        "lat": -53.56736513175259,
        "lon": -135.01188632475686,
        "alt_km": 648.0156448298567,
        "timestamp": "2025-12-24T05:51:19.263278+00:00",
        "meta_object_name": "GAOFEN-1 04",
        "meta_object_id": "2018-031D",
        "meta_epoch": "2025-12-23T22:17:28.750272",
        "meta_mean_motion": 14.76427755,
        "meta_eccentricity": 5.584e-05,
        "meta_inclination": 98.0791,
        "meta_ra_of_asc_node": 55.7678,
        "meta_arg_of_pericenter": 60.7493,
        "meta_mean_anomaly": 299.3772,
        "meta_ephemeris_type": 0,
        "meta_classification_type": "U",
        "meta_norad_cat_id": 43262,
        "meta_element_set_no": 999,
        "meta_rev_at_epoch": 41682,
        "meta_bstar": 0.00016258332,
        "meta_mean_motion_dot": 1.079e-05,
        "meta_mean_motion_ddot": 0,
        "tle_line1": "1 43262U 18031D   25357.92880498  .00001079  00000+0  16258-3 0  9991",
        "tle_line2": "2 43262  98.0791  55.7678 0000558  60.7493 299.3772 14.76427755416826"
      },
      "geometry": {
        "type": "Point",
        "coordinates": [
          -135.01188632475686,
          -53.56736513175259
        ]
      }
    },
    {
      "type": "Feature",
      "properties": {
        "norad_id": 43437,
        "name": "SENTINEL-3B",
        "group": "resource",
        "lat": 33.76608825372124,
        "lon": -110.91214147462641,
        "alt_km": 799.8310278403915,
        "timestamp": "2025-12-24T05:51:19.263288+00:00",
        "meta_object_name": "SENTINEL-3B",
        "meta_object_id": "2018-039A",
        "meta_epoch": "2025-12-23T15:42:35.768160",
        "meta_mean_motion": 14.26738154,
        "meta_eccentricity": 0.00016191,
        "meta_inclination": 98.6252,
        "meta_ra_of_asc_node": 62.6827,
        "meta_arg_of_pericenter": 91.1404,
        "meta_mean_anomaly": 268.9962,
        "meta_ephemeris_type": 0,
        "meta_classification_type": "U",
        "meta_norad_cat_id": 43437,
        "meta_element_set_no": 999,
        "meta_rev_at_epoch": 39909,
        "meta_bstar": 7.5156168e-05,
        "meta_mean_motion_dot": 1.38e-06,
        "meta_mean_motion_ddot": 0,
        "tle_line1": "1 43437U 18039A   25357.65458065  .00000138  00000+0  75156-4 0  9992",
        "tle_line2": "2 43437  98.6252  62.6827 0001619  91.1404 268.9962 14.26738154399095"
      },
      "geometry": {
        "type": "Point",
        "coordinates": [
          -110.91214147462641,
          33.76608825372124
        ]
      }
    },
    {
      "type": "Feature",
      "properties": {
        "norad_id": 43461,
        "name": "GAOFEN-5 01",
        "group": "resource",
        "lat": 81.21763832993484,
        "lon": -112.41138451915538,
        "alt_km": 684.7095026191109,
        "timestamp": "2025-12-24T05:51:19.263298+00:00",
        "meta_object_name": "GAOFEN-5 01",
        "meta_object_id": "2018-043A",
        "meta_epoch": "2025-12-23T21:14:03.284736",
        "meta_mean_motion": 14.60421492,
        "meta_eccentricity": 5.102e-05,
        "meta_inclination": 98.4343,
        "meta_ra_of_asc_node": 321.0475,
        "meta_arg_of_pericenter": 254.8295,
        "meta_mean_anomaly": 105.2849,
        "meta_ephemeris_type": 0,
        "meta_classification_type": "U",
        "meta_norad_cat_id": 43461,
        "meta_element_set_no": 999,
        "meta_rev_at_epoch": 40610,
        "meta_bstar": 0.00010698166,
        "meta_mean_motion_dot": 4.69e-06,
        "meta_mean_motion_ddot": 0,
        "tle_line1": "1 43461U 18043A   25357.88476024  .00000469  00000+0  10698-3 0  9990",
        "tle_line2": "2 43461  98.4343 321.0475 0000510 254.8295 105.2849 14.60421492406107"
      },
      "geometry": {
        "type": "Point",
        "coordinates": [
          -112.41138451915538,
          81.21763832993484
        ]
      }
    },
    {
      "type": "Feature",
      "properties": {
        "norad_id": 43484,
        "name": "GAOFEN-6",
        "group": "resource",
        "lat": 30.35795856838638,
        "lon": 57.51798813772366,
        "alt_km": 629.6842546942162,
        "timestamp": "2025-12-24T05:51:19.263308+00:00",
        "meta_object_name": "GAOFEN-6",
        "meta_object_id": "2018-048A",
        "meta_epoch": "2025-12-23T23:12:42.428736",
        "meta_mean_motion": 14.76585677,
        "meta_eccentricity": 0.00126467,
        "meta_inclination": 97.8016,
        "meta_ra_of_asc_node": 61.8565,
        "meta_arg_of_pericenter": 30.4074,
        "meta_mean_anomaly": 329.7868,
        "meta_ephemeris_type": 0,
        "meta_classification_type": "U",
        "meta_norad_cat_id": 43484,
        "meta_element_set_no": 999,
        "meta_rev_at_epoch": 40753,
        "meta_bstar": 0.00014247002,
        "meta_mean_motion_dot": 9.46e-06,
        "meta_mean_motion_ddot": 0,
        "tle_line1": "1 43484U 18048A   25357.96715774  .00000946  00000+0  14247-3 0  9991",
        "tle_line2": "2 43484  97.8016  61.8565 0012646  30.4074 329.7868 14.76585677407532"
      },
      "geometry": {
        "type": "Point",
        "coordinates": [
          57.51798813772366,
          30.35795856838638
        ]
      }
    },
    {
      "type": "Feature",
      "properties": {
        "norad_id": 43585,
        "name": "GAOFEN-11 01",
        "group": "resource",
        "lat": -32.439209547682715,
        "lon": 65.66262155396686,
        "alt_km": 423.6030428231106,
        "timestamp": "2025-12-24T05:51:19.263318+00:00",
        "meta_object_name": "GAOFEN-11 01",
        "meta_object_id": "2018-063A",
        "meta_epoch": "2025-12-23T23:47:48.364800",
        "meta_mean_motion": 15.49522285,
        "meta_eccentricity": 0.00038808,
        "meta_inclination": 97.1544,
        "meta_ra_of_asc_node": 60.8331,
        "meta_arg_of_pericenter": 254.1898,
        "meta_mean_anomaly": 105.8926,
        "meta_ephemeris_type": 0,
        "meta_classification_type": "U",
        "meta_norad_cat_id": 43585,
        "meta_element_set_no": 999,
        "meta_rev_at_epoch": 41316,
        "meta_bstar": 0.00021359005,
        "meta_mean_motion_dot": 0.00011684,
        "meta_mean_motion_ddot": 0,
        "tle_line1": "1 43585U 18063A   25357.99153200  .00011684  00000+0  21359-3 0  9996",
        "tle_line2": "2 43585  97.1544  60.8331 0003880 254.1898 105.8926 15.49522285413163"
      },
      "geometry": {
        "type": "Point",
        "coordinates": [
          65.66262155396686,
          -32.439209547682715
        ]
      }
    },
    {
      "type": "Feature",
      "properties": {
        "norad_id": 43613,
        "name": "ICESAT-2",
        "group": "resource",
        "lat": -86.92706633891724,
        "lon": 23.130846000798723,
        "alt_km": 490.5884587729661,
        "timestamp": "2025-12-24T05:51:19.263328+00:00",
        "meta_object_name": "ICESAT-2",
        "meta_object_id": "2018-070A",
        "meta_epoch": "2025-12-23T22:24:04.787136",
        "meta_mean_motion": 15.28198972,
        "meta_eccentricity": 0.00030134,
        "meta_inclination": 92.004,
        "meta_ra_of_asc_node": 243.7581,
        "meta_arg_of_pericenter": 109.8386,
        "meta_mean_anomaly": 250.3188,
        "meta_ephemeris_type": 0,
        "meta_classification_type": "U",
        "meta_norad_cat_id": 43613,
        "meta_element_set_no": 999,
        "meta_rev_at_epoch": 40569,
        "meta_bstar": 0.00033243753,
        "meta_mean_motion_dot": 9.134e-05,
        "meta_mean_motion_ddot": 0,
        "tle_line1": "1 43613U 18070A   25357.93338874  .00009134  00000+0  33244-3 0  9995",
        "tle_line2": "2 43613  92.0040 243.7581 0003013 109.8386 250.3188 15.28198972405699"
      },
      "geometry": {
        "type": "Point",
        "coordinates": [
          23.130846000798723,
          -86.92706633891724
        ]
      }
    },
    {
      "type": "Feature",
      "properties": {
        "norad_id": 43719,
        "name": "HYSIS",
        "group": "resource",
        "lat": 27.11467196512046,
        "lon": -114.70124341766255,
        "alt_km": 632.5312350221338,
        "timestamp": "2025-12-24T05:51:19.263338+00:00",
        "meta_object_name": "HYSIS",
        "meta_object_id": "2018-096A",
        "meta_epoch": "2025-12-23T22:40:18.479712",
        "meta_mean_motion": 14.78674459,
        "meta_eccentricity": 8.574e-05,
        "meta_inclination": 98.0082,
        "meta_ra_of_asc_node": 60.8671,
        "meta_arg_of_pericenter": 57.0066,
        "meta_mean_anomaly": 303.1228,
        "meta_ephemeris_type": 0,
        "meta_classification_type": "U",
        "meta_norad_cat_id": 43719,
        "meta_element_set_no": 999,
        "meta_rev_at_epoch": 38152,
        "meta_bstar": 0.00022156104,
        "meta_mean_motion_dot": 1.572e-05,
        "meta_mean_motion_ddot": 0,
        "tle_line1": "1 43719U 18096A   25357.94465833  .00001572  00000+0  22156-3 0  9995",
        "tle_line2": "2 43719  98.0082  60.8671 0000857  57.0066 303.1228 14.78674459381528"
      },
      "geometry": {
        "type": "Point",
        "coordinates": [
          -114.70124341766255,
          27.11467196512046
        ]
      }
    }
  ]
}